H1 CPF  1  HTS 2022  9 22 12  7651 larets           NONE
H2  0304206 5557    27944 2022 09 22  0  0  0 2022 09 27  0  0  0   180 1 1  0 0 0
H5  0.0560 
H9 
10 0 59844  72360.00000  0     972557.004   -3149016.938    6244193.352
10 0 59844  72540.00000  0     838964.695   -4306101.177    5535221.617
10 0 59844  72720.00000  0     646671.934   -5302709.145    4624001.488
10 0 59844  72900.00000  0     407352.814   -6101260.287    3543789.748
10 0 59844  73080.00000  0     135280.622   -6671686.604    2334034.914
10 0 59844  73260.00000  0    -153401.681   -6992612.429    1038947.570
10 0 59844  73440.00000  0    -441510.716   -7052200.917    -294122.121
10 0 59844  73620.00000  0    -711711.506   -6848617.953   -1616447.318
10 0 59844  73800.00000  0    -947415.928   -6390078.083   -2879741.158
10 0 59844  73980.00000  0   -1133645.625   -5694483.985   -4037944.366
10 0 59844  74160.00000  0   -1257817.493   -4788678.194   -5048913.919
10 0 59844  74340.00000  0   -1310411.204   -3707349.084   -5875938.214
10 0 59844  74520.00000  0   -1285489.010   -2491656.984   -6489029.258
10 0 59844  74700.00000  0   -1181046.656   -1187642.023   -6865958.884
10 0 59844  74880.00000  0    -999184.357     155519.380   -6993014.182
10 0 59844  75060.00000  0    -746091.810    1487345.837   -6865464.439
10 0 59844  75240.00000  0    -431845.827    2757913.631   -6487736.235
10 0 59844  75420.00000  0     -70027.517    3919702.334   -5873296.040
10 0 59844  75600.00000  0     322835.588    4929374.456   -5044232.026
10 0 59844  75780.00000  0     727984.549    5749425.623   -4030530.449
10 0 59844  75960.00000  0    1125276.406    6349644.981   -2869052.613
10 0 59844  76140.00000  0    1494130.945    6708314.474   -1602229.817
10 0 59844  76320.00000  0    1814533.766    6813084.170    -276512.624
10 0 59844  76500.00000  0    2068044.442    6661464.045    1059371.393
10 0 59844  76680.00000  0    2238751.886    6260895.877    2356269.899
10 0 59844  76860.00000  0    2314126.039    5628402.896    3566480.200
10 0 59844  77040.00000  0    2285720.620    4789836.214    4645562.426
10 0 59844  77220.00000  0    2149686.562    3778754.468    5554010.504
10 0 59844  77400.00000  0    1907070.342    2634999.716    6258695.771
10 0 59844  77580.00000  0    1563893.425    1403065.721    6734040.086
10 0 59844  77760.00000  0    1131009.937     130323.278    6962896.035
10 0 59844  77940.00000  0     623751.631   -1134817.340    6937111.442
10 0 59844  78120.00000  0      61374.941   -2344744.587    6657786.503
10 0 59844  78300.00000  0    -533674.600   -3454431.357    6135213.266
10 0 59844  78480.00000  0   -1136650.900   -4423103.710    5388497.811
10 0 59844  78660.00000  0   -1721516.924   -5215738.482    4444890.082
10 0 59844  78840.00000  0   -2262051.827   -5804357.711    3338831.614
10 0 59844  79020.00000  0   -2733008.189   -6169057.893    2110721.429
10 0 59844  79200.00000  0   -3111262.919   -6298717.061     805445.374
10 0 59844  79380.00000  0   -3376906.121   -6191351.348    -529276.881
10 0 59844  79560.00000  0   -3514213.688   -5854099.725   -1844664.414
10 0 59844  79740.00000  0   -3512453.653   -5302832.775   -3092692.265
10 0 59844  79920.00000  0   -3366483.589   -4561404.263   -4227871.391
10 0 59844  80100.00000  0   -3077107.800   -3660589.907   -5208910.302
10 0 59844  80280.00000  0   -2651183.908   -2636777.437   -6000193.588
10 0 59844  80460.00000  0   -2101480.138   -1530473.208   -6573032.256
10 0 59844  80640.00000  0   -1446289.224    -384691.686   -6906652.706
10 0 59844  80820.00000  0    -708818.536     756706.136   -6988899.176
10 0 59844  81000.00000  0      83619.169    1850663.660   -6816648.631
10 0 59844  81180.00000  0     900593.636    2856524.738   -6395937.283
10 0 59844  81360.00000  0    1709701.621    3737534.325   -5741793.179
10 0 59844  81540.00000  0    2477835.210    4462195.190   -4877760.799
10 0 59844  81720.00000  0    3172530.136    5005432.850   -3835124.053
10 0 59844  81900.00000  0    3763344.930    5349524.599   -2651831.330
10 0 59844  82080.00000  0    4223212.312    5484742.256   -1371143.695
10 0 59844  82260.00000  0    4529692.994    5409668.491     -40045.531
10 0 59844  82440.00000  0    4666061.927    5131161.679    1292522.200
10 0 59844  82620.00000  0    4622162.359    4663961.707    2577523.421
10 0 59844  82800.00000  0    4394984.848    4029962.935    3767699.170
10 0 59844  82980.00000  0    3988932.167    3257182.650    4819364.562
10 0 59844  83160.00000  0    3415763.148    2378490.288    5694038.687
10 0 59844  83340.00000  0    2694220.034    1430168.206    6359848.446
10 0 59844  83520.00000  0    1849369.014     450379.466    6792650.014
10 0 59844  83700.00000  0     911691.586    -522383.039    6976850.800
10 0 59844  83880.00000  0     -84038.959   -1450807.045    6905925.278
10 0 59844  84060.00000  0   -1100056.989   -2300186.638    6582612.630
10 0 59844  84240.00000  0   -2097033.514   -3039710.383    6018795.010
10 0 59844  84420.00000  0   -3035583.902   -3643571.713    5235073.852
10 0 59844  84600.00000  0   -3877823.055   -4091877.795    4260053.938
10 0 59844  84780.00000  0   -4588906.946   -4371317.627    3129328.592
10 0 59844  84960.00000  0   -5138486.405   -4475562.095    1884202.213
10 0 59844  85140.00000  0   -5502017.006   -4405380.942     570187.748
10 0 59844  85320.00000  0   -5661858.012   -4168462.647    -764673.075
10 0 59844  85500.00000  0   -5608101.539   -3778944.649   -2071597.690
10 0 59844  85680.00000  0   -5339083.003   -3256673.880   -3302882.439
10 0 59844  85860.00000  0   -4861547.417   -2626240.081   -4413664.334
10 0 59844  86040.00000  0   -4190474.022   -1915838.016   -5363553.404
10 0 59844  86220.00000  0   -3348571.886   -1156016.604   -6118076.182
10 0 59845      0.00000  0   -2365475.912    -378374.018   -6649881.670
10 0 59845    180.00000  0   -1276681.972     385741.746   -6939678.419
10 0 59845    360.00000  0    -122266.402    1106473.416   -6976885.519
10 0 59845    540.00000  0    1054563.195    1756598.468   -6759997.422
10 0 59845    720.00000  0    2209052.325    2312544.034   -6296662.299
10 0 59845    900.00000  0    3296581.365    2755245.124   -5603458.460
10 0 59845   1080.00000  0    4274384.797    3070813.870   -4705363.622
10 0 59845   1260.00000  0    5103254.595    3250998.387   -3634926.216
10 0 59845   1440.00000  0    5749161.868    3293408.439   -2431138.620
10 0 59845   1620.00000  0    6184716.966    3201493.498   -1138041.026
10 0 59845   1800.00000  0    6390393.936    2984265.072     196904.102
10 0 59845   1980.00000  0    6355444.292    2655768.644    1524601.133
10 0 59845   2160.00000  0    6078444.505    2234332.054    2796191.350
10 0 59845   2340.00000  0    5567446.276    1741633.126    3964919.771
10 0 59845   2520.00000  0    4839715.958    1201632.327    4987908.218
10 0 59845   2700.00000  0    3921086.331     639433.149    5827747.968
10 0 59845   2880.00000  0    2844964.035      80130.367    6453857.135
10 0 59845   3060.00000  0    1651044.056    -452294.881    6843551.483
10 0 59845   3240.00000  0     383802.574    -935986.117    6982814.976
10 0 59845   3420.00000  0    -909183.624   -1352095.703    6866757.875
10 0 59845   3600.00000  0   -2179025.547   -1685509.326    6499753.356
10 0 59845   3780.00000  0   -3377356.575   -1925386.235    5895262.984
10 0 59845   3960.00000  0   -4458166.441   -2065503.576    5075367.573
10 0 59845   4140.00000  0   -5379582.011   -2104399.861    4069992.989
10 0 59845   4320.00000  0   -6105514.935   -2045305.152    2915844.905
10 0 59845   4500.00000  0   -6607110.148   -1895861.430    1655090.734
10 0 59845   4680.00000  0   -6863937.817   -1667649.343     333822.314
10 0 59845   4860.00000  0   -6864855.930   -1375536.769    -999652.090
10 0 59845   5040.00000  0   -6608495.481   -1036881.669   -2296607.670
10 0 59845   5220.00000  0   -6103343.622    -670634.139   -3509714.818
10 0 59845   5400.00000  0   -5367426.323    -296384.892   -4594784.840
10 0 59845   5580.00000  0   -4427609.429      66595.582   -5512376.263
10 0 59845   5760.00000  0   -3318560.267     400275.729   -6229199.379
10 0 59845   5940.00000  0   -2081424.577     688695.859   -6719273.112
10 0 59845   6120.00000  0    -762285.054     918680.973   -6964810.577
10 0 59845   6300.00000  0     589542.845    1080409.443   -6956821.172
10 0 59845   6480.00000  0    1923319.597    1167818.593   -6695426.012
10 0 59845   6660.00000  0    3188756.447    1178835.486   -6189884.893
10 0 59845   6840.00000  0    4337898.098    1115424.189   -5458314.213
10 0 59845   7020.00000  0    5326949.081     983444.867   -4527103.478
10 0 59845   7200.00000  0    6117988.577     792329.427   -3430032.225
10 0 59845   7380.00000  0    6680497.761     554581.897   -2207094.263
10 0 59845   7560.00000  0    6992627.847     285122.663    -903059.310
10 0 59845   7740.00000  0    7042133.384        504.859     434187.565
10 0 59845   7920.00000  0    6826909.887    -281956.629    1755454.653
10 0 59845   8100.00000  0    6355104.091    -545099.550    3012121.635
10 0 59845   8280.00000  0    5644780.144    -772820.748    4157997.739
10 0 59845   8460.00000  0    4723166.417    -950923.799    5151064.364
10 0 59845   8640.00000  0    3625532.045   -1067865.007    5955031.622
10 0 59845   8820.00000  0    2393755.008   -1115357.483    6540645.616
10 0 59845   9000.00000  0    1074661.702   -1088811.495    6886710.225
10 0 59845   9180.00000  0    -281792.276    -987594.492    6980803.921
10 0 59845   9360.00000  0   -1624428.226    -815100.655    6819676.253
10 0 59845   9540.00000  0   -2902766.360    -578630.458    6409329.884
10 0 59845   9720.00000  0   -4068908.865    -289084.039    5764797.406
10 0 59845   9900.00000  0   -5079334.622      39519.509    4909615.812
10 0 59845  10080.00000  0   -5896543.599     390679.696    3874998.658
10 0 59845  10260.00000  0   -6490483.153     746185.514    2698724.826
99
